full_name,a,e,i,om,w,q,ad,per_y,data_arc,condition_code,n_obs_used,n_del_obs_used,n_dop_obs_used,H
"147338 (2003 BT54)",2.540686517413143,.2435105105464457,11.18276303957146,299.2993393866425,121.3235728508047,1.922002646419397,3.159370388406888,4.04981166207217,8276,0,423,,,16.1
"147344 (2003 BK67)",2.688940995535447,.1835018390806138,9.889562941742522,89.27848356248712,319.7077357546335,2.195515377675436,3.182366613395458,4.40940622539128,5727,0,436,,,15.5
"147518 (2004 DT37)",2.624134998315633,.1864374993191694,8.214419178141316,22.13517203297677,331.5420965444383,2.134897831353753,3.113372165277512,4.25096434685989,7155,0,682,,,15.0
"147560 (2004 FN25)",2.619051939631788,.08954616661345149,14.58817514153613,15.61184323717251,4.337937656609333,2.384525878276236,2.853578000987339,4.23861888786845,8606,0,376,,,15.6
"147661 (2004 JN51)",2.795447462449652,.1336604650102014,10.23569935178192,86.11623016446885,206.8335384745569,2.421806654707044,3.16908827019226,4.67396228953863,5616,0,372,,,15.3
"147875 (2006 QU55)",2.589134858379147,.1937698646748235,12.95081989347394,346.0780025880243,358.82962548378,2.087438547246151,3.090831169512142,4.16620091505225,6269,0,382,,,15.7
"147901 (2006 SV48)",2.654828790875011,.2271769075591903,14.19827096231854,39.82884676342883,306.2647423542637,2.051712996064921,3.2579445856851,4.32576557816952,5258,0,417,,,15.1
"147915 (2006 UA105)",2.692689477309924,.102995350549369,15.50114153491548,56.54767893299324,287.9790066166105,2.415354980673791,2.970023973946057,4.41862974754497,7064,0,513,,,15.2
"148021 (1998 CT)",2.729427086260513,.2667473779179842,8.071723950889467,94.5982609270518,290.9350535535234,2.001359567782198,3.457494604738828,4.50936560437076,6993,0,226,,,16.5
"148042 (1998 RP79)",2.535002717148778,.04544848618831756,15.41344892540879,21.37647111530762,173.2342386315952,2.419790681171094,2.650214753126461,4.03622944207359,6801,0,575,,,14.6
"148044 (1998 SL34)",2.542891665112263,.200578996001985,14.45269069348166,20.09654553035186,343.6110730455495,2.032841007982229,3.052942322242297,4.05508525856854,8237,0,264,,,16.1
"148078 (1998 XS10)",2.593876629651981,.2244801632052925,5.086076347694724,121.4395025513202,305.8333411994435,2.01160278049331,3.176150478810652,4.17765119580241,6385,0,524,,,15.5
"148248 (2000 EJ124)",2.524253380082519,.08756551798707536,3.494279613816361,132.7956198623394,256.1125789754464,2.303215825324967,2.74529093484007,4.0105840469379,6853,0,998,,,14.7
"148390 (2000 TU37)",2.670953334021334,.1646592918877072,14.28547953535678,138.5918420636223,179.4700688895553,2.231156049376271,3.110750618666398,4.36523524079138,6229,0,428,,,15.2
"148485 (2001 JW)",2.601549388483022,.1714734666350651,.81621953876251,196.8865057729449,69.69980400482484,2.155452696217504,3.047646080748539,4.19620130857666,6654,0,247,,,16.8
"148513 (2001 OE113)",2.660139314962043,.2860711040884771,12.95391765751328,22.04814150318087,303.7407442817147,1.899150324101686,3.421128305822399,4.33875148132753,7106,0,375,,,15.1
"148516 (2001 PX9)",2.654067740410173,.2042499305501085,9.787711930563178,153.7170294408668,119.8313336302784,2.111974588756111,3.196160892064233,4.32390563339537,9083,0,203,,,16.3
"148519 (2001 PO40)",2.688913682688761,.1389725876512698,12.17873747954501,304.6670289004127,132.5767129543609,2.315228390234599,3.062598975142924,4.40933904292209,5271,0,265,,,15.6
"148527 (2001 QC2)",2.70909235618121,.2889780444104807,2.714652134025272,214.9828656368481,181.4963298213591,1.926224144964582,3.491960567397838,4.45906618576272,5789,0,502,,,15.9
"148554 (2001 QR163)",2.73022016340804,.274654662637549,8.819920339012194,350.3455611768773,50.15506374719325,1.980352465500971,3.480087861315109,4.51133114574841,5696,0,353,,,16.0
"148576 (2001 QU274)",2.754081678959931,.2281632554298431,7.890915977965575,111.0128420864288,155.0128831578557,2.125701437368745,3.382461920551116,4.57060222288493,6001,0,236,,,15.8
"148579 (2001 QD287)",2.714047331811266,.1820114467785785,11.98281274009703,326.7134107816037,67.88540415642467,2.220059650322757,3.208035013299776,4.47130533884361,5734,0,322,,,15.5
"148597 (2001 RL33)",2.627699447260333,.1887455159540143,16.14002193859399,317.7833895131414,98.1178814695115,2.131732959315103,3.123665935205562,4.25962862463595,5336,0,278,,,15.9
"148631 (2001 SP3)",2.689238069900399,.1554083585642015,6.24636860579224,13.45905666106369,96.32115186831651,2.271307995668816,3.107168144131981,4.4101369727761,5744,0,690,,,15.2
"148668 (2001 SH161)",2.520515865543841,.2123583786399738,2.654068326496666,.1077825904288664,328.6616599590176,1.985263203000621,3.055768528087061,4.0016799885914,8812,0,614,,,16.0
"148679 (2001 SB215)",2.671349722640819,.2265878849616887,12.91786731644753,169.9324209652023,286.895537409116,2.066054238994643,3.276645206286996,4.36620702514205,6289,0,415,,,15.6
"148700 (2001 SU277)",2.726868668082119,.2895392301645467,9.240823969179615,337.9909047624446,73.8221964939266,1.937333213165799,3.516404122998438,4.5030268351103,8919,0,510,,,15.6
"148705 (2001 SZ339)",2.677325847987733,.0968150219295484,7.423104520121099,267.997149749844,187.5041794915968,2.418120487302254,2.936531208673212,4.38086679886832,7092,0,269,,,16.1
"148751 (2001 TQ178)",2.703599271212902,.222226229291231,3.790380502327825,248.0148132927771,60.90518971907433,2.102788599656739,3.304409942769066,4.44551093974082,5636,0,191,,,16.5
"148768 (2001 TB232)",2.704251633004277,.0869886383305231,8.200529330420164,93.23091225948545,270.1143623699708,2.469012465746141,2.939490800262412,4.44712004826163,8535,0,347,,,15.6
"148778 (2001 UL13)",2.753598127600045,.2048098478843638,10.88485924778657,52.81723841415894,316.0584890979879,2.189634113951611,3.31756214124848,4.56939854185948,5680,0,403,,,15.6
"148878 (2001 VC124)",2.727815818755294,.09800871634230231,7.767328816561935,316.5603831787506,137.9932705645011,2.460466091940861,2.995165545569727,4.5053731611079,5617,0,237,,,15.8
"148880 (2001 WL5)",2.71803956687443,.1968377659528839,14.10042007293984,123.1239232051028,286.860125530726,2.183026730759323,3.253052402989537,4.4811745834464,5702,0,424,,,15.8
"148892 (2001 WY32)",2.78007893755436,.166156521709803,6.184914912618276,105.0526770313532,285.1881785992472,2.318150691211643,3.242007183897077,4.63547126694063,5663,0,384,,,15.9
"148932 (2001 XR92)",2.571039783357187,.1373982171050885,3.234871289999615,27.73327851548891,299.5341953255504,2.217783501017657,2.924296065696718,4.12260188485212,15072,0,865,,,15.4
"148948 (2001 XQ154)",2.598610700546768,.237860925067941,5.902224577414313,85.75164895095637,236.8887667531924,1.980502755423264,3.216718645670273,4.18909332714327,6323,0,602,,,15.6
"149044 (2002 BV3)",2.79675794742005,.2462839133606819,11.54407147641501,10.75862661860893,65.52937029301438,2.107961455406852,3.485554439433248,4.677249352817,6972,0,400,,,15.5
"149206 (2002 PT129)",2.555207777857068,.2218223302647483,6.323430797837691,27.66089115461121,300.7848362832058,1.988405634262204,3.122009921451932,4.08458119339733,6757,0,169,,,16.8
"149305 (2002 TL376)",2.532930837645933,.2883669954079304,16.29983661567869,187.8048062783799,107.596248904663,1.802517182417883,3.263344492873983,4.03128218577003,5902,0,220,,,16.4
"149314 (2002 UX33)",2.66620857815969,.04967791165765776,21.13065751140612,271.0245789997973,162.1346049322075,2.533756903952983,2.798660252366396,4.35360861996568,5733,0,285,,,15.4
"149391 (2003 AE11)",2.584939199963808,.142891844800916,10.30055125905622,146.7725420807423,284.9120020800085,2.215572468982775,2.95430593094484,4.15607810948446,7725,0,346,,,15.8
"149395 (2003 AM37)",2.625423370037988,.1062708579436872,6.780942047778471,267.76783053,159.6165718009885,2.346417376038645,2.904429364037332,4.25409537543389,8178,0,351,,,16.1
"149411 (2003 AB67)",2.654194914338217,.2384303752919756,11.6887584528344,9.637094285358332,106.4089203498056,2.021354224814503,3.287035603861931,4.32421641746617,5384,0,441,,,15.9
"149464 (2003 EP7)",2.594259996176933,.1653987412495923,13.33001637607605,326.1690208371398,.5915930182665726,2.165172658335096,3.023347334018769,4.17857739490054,5905,0,759,,,15.1
"149483 (2003 EN36)",2.649348035022098,.3029749461615678,1.888738477162565,165.5453667012112,275.4580717628168,1.846661956748022,3.452034113296174,4.31237701730117,6768,0,287,,,16.4
"149736 (2004 LH24)",2.597653779792944,.1783270868531284,14.77939712693238,102.9340182785468,200.8502299939909,2.13442174858945,3.060885810996437,4.18677963239676,6321,0,573,,,15.1
"150084 (2006 WN11)",2.659364321268209,.2171624753298197,2.795348389781593,10.54954325022481,7.480641454603538,2.081850182457798,3.236878460078618,4.33685556927782,7081,0,431,,,15.8
"150093 (4197 P-L)",2.741130970035922,.2054359988225836,2.228501258206783,265.6546852732836,117.7148053034698,2.178003991303075,3.304257948768769,4.53840116371456,20638,0,223,,,16.7
"150165 (1997 UG9)",2.640371846964214,.3800683754096835,8.045936022082303,34.12119235640386,13.86148387034449,1.63685000861106,3.643893685317368,4.29047961025573,6731,0,437,,,15.8
"150167 (1997 XB1)",2.674990897385646,.3557362227740309,10.80817240791047,75.036557953909,350.3489888418395,1.723399739594761,3.626582055176531,4.37513708333913,6721,0,290,,,16.0
"150236 (1998 XV19)",2.554277186703934,.1460468771086458,8.010639720982635,63.49642045236467,311.7558408019112,2.181232980315967,2.927321393091901,4.08235002707929,6750,0,389,,,16.2
"150548 (2000 SE176)",2.746274896629685,.1643029520072253,12.31457962376985,353.0598583600017,322.0213019526578,2.295053824090091,3.19749596916928,4.55118210240556,6995,0,363,,,15.1
"150566 (2000 SG313)",2.707057218746564,.07086813577658764,14.05060610394755,295.7361316279853,339.4905751319153,2.515213120213441,2.898901317279687,4.45404248770867,6179,0,389,,,15.0
"150753 (2001 QS134)",2.712653036445319,.2767247383878065,8.067737232287874,298.98193454875,93.35529872905606,1.961994834598099,3.463311238292539,4.46786019652154,7021,0,390,,,16.1
